{
  "type": "FeatureCollection",
  "features": [
    {
      "type": "Feature",
      "properties": {
        "zone_id": "RZ001",
        "name": "Klang riverside",
        "hazard_type": "flood",
        "severity": "high"
      },
      "geometry": {
        "type": "Polygon",
        "coordinates": [
          [
            [
              101.43468918918919,
              3.0340891891891895
            ],
            [
              101.4563108108108,
              3.0340891891891895
            ],
            [
              101.4563108108108,
              3.055710810810811
            ],
            [
              101.43468918918919,
              3.055710810810811
            ],
            [
              101.43468918918919,
              3.0340891891891895
            ]
          ]
        ]
      }
    },
    {
      "type": "Feature",
      "properties": {
        "zone_id": "RZ002",
        "name": "Shah Alam lowland",
        "hazard_type": "flood",
        "severity": "medium"
      },
      "geometry": {
        "type": "Polygon",
        "coordinates": [
          [
            [
              101.4991891891892,
              3.0624891891891894
            ],
            [
              101.52081081081081,
              3.0624891891891894
            ],
            [
              101.52081081081081,
              3.084110810810811
            ],
            [
              101.4991891891892,
              3.084110810810811
            ],
            [
              101.4991891891892,
              3.0624891891891894
            ]
          ]
        ]
      }
    },
    {
      "type": "Feature",
      "properties": {
        "zone_id": "RZ003",
        "name": "Kajang stream basin",
        "hazard_type": "flood",
        "severity": "medium"
      },
      "geometry": {
        "type": "Polygon",
        "coordinates": [
          [
            [
              101.7791891891892,
              2.9822891891891894
            ],
            [
              101.80081081081082,
              2.9822891891891894
            ],
            [
              101.80081081081082,
              3.003910810810811
            ],
            [
              101.7791891891892,
              3.003910810810811
            ],
            [
              101.7791891891892,
              2.9822891891891894
            ]
          ]
        ]
      }
    },
    {
      "type": "Feature",
      "properties": {
        "zone_id": "RZ004",
        "name": "Cheras drainage basin",
        "hazard_type": "flood",
        "severity": "low"
      },
      "geometry": {
        "type": "Polygon",
        "coordinates": [
          [
            [
              101.73918918918919,
              3.087189189189189
            ],
            [
              101.76081081081081,
              3.087189189189189
            ],
            [
              101.76081081081081,
              3.1088108108108106
            ],
            [
              101.73918918918919,
              3.1088108108108106
            ],
            [
              101.73918918918919,
              3.087189189189189
            ]
          ]
        ]
      }
    },
    {
      "type": "Feature",
      "properties": {
        "zone_id": "RZ005",
        "name": "Puchong industrial zone",
        "hazard_type": "landslide",
        "severity": "low"
      },
      "geometry": {
        "type": "Polygon",
        "coordinates": [
          [
            [
              101.59918918918919,
              3.0041891891891894
            ],
            [
              101.62081081081081,
              3.0041891891891894
            ],
            [
              101.62081081081081,
              3.025810810810811
            ],
            [
              101.59918918918919,
              3.025810810810811
            ],
            [
              101.59918918918919,
              3.0041891891891894
            ]
          ]
        ]
      }
    },
    {
      "type": "Feature",
      "properties": {
        "zone_id": "RZ006",
        "name": "Ampang hillside",
        "hazard_type": "landslide",
        "severity": "high"
      },
      "geometry": {
        "type": "Polygon",
        "coordinates": [
          [
            [
              101.75918918918919,
              3.144189189189189
            ],
            [
              101.7808108108108,
              3.144189189189189
            ],
            [
              101.7808108108108,
              3.1658108108108105
            ],
            [
              101.75918918918919,
              3.1658108108108105
            ],
            [
              101.75918918918919,
              3.144189189189189
            ]
          ]
        ]
      }
    },
    {
      "type": "Feature",
      "properties": {
        "zone_id": "RZ007",
        "name": "Sungai Buloh floodplain",
        "hazard_type": "flood",
        "severity": "medium"
      },
      "geometry": {
        "type": "Polygon",
        "coordinates": [
          [
            [
              101.55918918918918,
              3.1891891891891895
            ],
            [
              101.5808108108108,
              3.1891891891891895
            ],
            [
              101.5808108108108,
              3.210810810810811
            ],
            [
              101.55918918918918,
              3.210810810810811
            ],
            [
              101.55918918918918,
              3.1891891891891895
            ]
          ]
        ]
      }
    },
    {
      "type": "Feature",
      "properties": {
        "zone_id": "RZ008",
        "name": "Rawang lowland",
        "hazard_type": "flood",
        "severity": "low"
      },
      "geometry": {
        "type": "Polygon",
        "coordinates": [
          [
            [
              101.5655891891892,
              3.306689189189189
            ],
            [
              101.58721081081082,
              3.306689189189189
            ],
            [
              101.58721081081082,
              3.3283108108108106
            ],
            [
              101.5655891891892,
              3.3283108108108106
            ],
            [
              101.5655891891892,
              3.306689189189189
            ]
          ]
        ]
      }
    },
    {
      "type": "Feature",
      "properties": {
        "zone_id": "RZ009",
        "name": "Semenyih catchment",
        "hazard_type": "flood",
        "severity": "medium"
      },
      "geometry": {
        "type": "Polygon",
        "coordinates": [
          [
            [
              101.83258918918919,
              2.9388891891891893
            ],
            [
              101.85421081081081,
              2.9388891891891893
            ],
            [
              101.85421081081081,
              2.9605108108108107
            ],
            [
              101.83258918918919,
              2.9605108108108107
            ],
            [
              101.83258918918919,
              2.9388891891891893
            ]
          ]
        ]
      }
    },
    {
      "type": "Feature",
      "properties": {
        "zone_id": "RZ010",
        "name": "Subang Jaya urban drain",
        "hazard_type": "flood",
        "severity": "low"
      },
      "geometry": {
        "type": "Polygon",
        "coordinates": [
          [
            [
              101.57428918918919,
              3.0458891891891895
            ],
            [
              101.5959108108108,
              3.0458891891891895
            ],
            [
              101.5959108108108,
              3.067510810810811
            ],
            [
              101.57428918918919,
              3.067510810810811
            ],
            [
              101.57428918918919,
              3.0458891891891895
            ]
          ]
        ]
      }
    },
    {
      "type": "Feature",
      "properties": {
        "zone_id": "RZ011",
        "name": "Bangi highland",
        "hazard_type": "landslide",
        "severity": "low"
      },
      "geometry": {
        "type": "Polygon",
        "coordinates": [
          [
            [
              101.7752891891892,
              2.9052891891891894
            ],
            [
              101.79691081081081,
              2.9052891891891894
            ],
            [
              101.79691081081081,
              2.926910810810811
            ],
            [
              101.7752891891892,
              2.926910810810811
            ],
            [
              101.7752891891892,
              2.9052891891891894
            ]
          ]
        ]
      }
    },
    {
      "type": "Feature",
      "properties": {
        "zone_id": "RZ012",
        "name": "Wangsa Maju basin",
        "hazard_type": "flood",
        "severity": "medium"
      },
      "geometry": {
        "type": "Polygon",
        "coordinates": [
          [
            [
              101.71858918918919,
              3.1932891891891892
            ],
            [
              101.74021081081081,
              3.1932891891891892
            ],
            [
              101.74021081081081,
              3.2149108108108106
            ],
            [
              101.71858918918919,
              3.2149108108108106
            ],
            [
              101.71858918918919,
              3.1932891891891892
            ]
          ]
        ]
      }
    }
  ]
}